{
"type": "FeatureCollection",
"name": "metro_lines",
"crs": { "type": "name", "properties": { "name": "urn:ogc:def:crs:OGC:1.3:CRS84" } },
"features": [
{ "type": "Feature", "properties": { "kn": "北京大兴国际机场线", "ln": "大兴国际机场线", "cl": "2249A3", "ls": "900000076659" }, "geometry": { "type": "LineString", "coordinates": [ [ 116.365522, 39.735583 ], [ 116.413880465273181, 39.523830665528003 ] ] } },
{ "type": "Feature", "properties": { "kn": "地铁亦庄线", "ln": "亦庄线", "cl": "F0087D", "ls": "110100023102" }, "geometry": { "type": "LineString", "coordinates": [ [ 116.448364, 39.834217 ], [ 116.459226, 39.827951 ], [ 116.460789, 39.80691 ], [ 116.480307, 39.803011 ], [ 116.490632, 39.80689 ], [ 116.505403, 39.802971 ], [ 116.513321, 39.793189 ], [ 116.521688, 39.782832 ], [ 116.539901, 39.772962 ], [ 116.562321, 39.783673 ], [ 116.581357, 39.795118 ], [ 116.601913, 39.812607 ] ] } },
{ "type": "Feature", "properties": { "kn": "地铁17号线", "ln": "17号线", "cl": "00AD8E", "ls": "900000099933" }, "geometry": { "type": "LineString", "coordinates": [ [ 116.476361, 39.856706 ], [ 116.495847, 39.8443 ], [ 116.552752, 39.818664 ], [ 116.57667, 39.80939 ], [ 116.591563, 39.80355 ], [ 116.610278, 39.792539 ] ] } },
{ "type": "Feature", "properties": { "kn": "地铁7号线", "ln": "7号线", "cl": "F9BE58", "ls": "110100023054" }, "geometry": { "type": "MultiLineString", "coordinates": [ [ [ 116.68434, 39.863154 ], [ 116.670792, 39.863515 ], [ 116.657379, 39.863491 ], [ 116.63216, 39.863328 ], [ 116.599119, 39.858725 ], [ 116.569826, 39.856496 ], [ 116.553759, 39.848979 ], [ 116.537247, 39.855488 ], [ 116.526836, 39.859691 ], [ 116.511821, 39.860728 ], [ 116.500067, 39.866505 ], [ 116.501084, 39.874578 ], [ 116.503439, 39.887369 ], [ 116.497768, 39.89253 ], [ 116.487935, 39.893183 ], [ 116.478879, 39.89321 ], [ 116.461834, 39.893512 ], [ 116.448998, 39.893648 ], [ 116.440803472021727, 39.893661548257356 ] ], [ [ 116.440803472021628, 39.893661548257356 ], [ 116.433877, 39.893673 ], [ 116.408464, 39.892725 ], [ 116.398372, 39.891334 ], [ 116.384596, 39.889486 ], [ 116.358239, 39.889418 ], [ 116.335608, 39.889898 ], [ 116.327753, 39.889954 ], [ 116.321218, 39.894706 ] ] ] } },
{ "type": "Feature", "properties": { "kn": "地铁1号线(八通线)", "ln": "1号线八通线", "cl": "CC0000", "ls": "110100023110" }, "geometry": { "type": "MultiLineString", "coordinates": [ [ [ 116.190337, 39.90745 ], [ 116.212684, 39.907442 ], [ 116.235948, 39.90744 ], [ 116.246941370102547, 39.907435457285082 ] ], [ [ 116.246941370102562, 39.907435457285082 ], [ 116.252888, 39.907433 ], [ 116.273987, 39.907456 ], [ 116.294765, 39.907474 ], [ 116.309919, 39.907469 ], [ 116.321459, 39.907422 ], [ 116.337583, 39.907379 ], [ 116.352583, 39.907234 ], [ 116.356866, 39.907242 ], [ 116.374072, 39.907383 ], [ 116.391278, 39.907472 ], [ 116.401216, 39.90778 ], [ 116.411571, 39.908069 ], [ 116.41848, 39.908325 ], [ 116.429465491472257, 39.90843659220242 ] ], [ [ 116.429465491472328, 39.90843659220242 ], [ 116.435806, 39.908501 ], [ 116.450497, 39.908454 ], [ 116.461841, 39.909104 ], [ 116.475783, 39.908287 ], [ 116.495456, 39.908749 ], [ 116.515664, 39.908495 ], [ 116.531421, 39.909448 ], [ 116.554639, 39.909215 ], [ 116.57676, 39.91014 ], [ 116.599002, 39.90909 ], [ 116.618658, 39.906121 ], [ 116.637252, 39.903864 ], [ 116.646621, 39.893329 ], [ 116.657533, 39.890278 ], [ 116.66872, 39.883677 ], [ 116.678811, 39.875496 ], [ 116.686349, 39.871926 ], [ 116.695495, 39.856722 ], [ 116.679099, 39.849152 ] ] ] } },
{ "type": "Feature", "properties": { "kn": "地铁6号线", "ln": "6号线", "cl": "D0970A", "ls": "110100023339" }, "geometry": { "type": "MultiLineString", "coordinates": [ [ [ 116.747434, 39.902652 ], [ 116.73385, 39.903147 ], [ 116.717826, 39.903195 ], [ 116.707056, 39.903268 ], [ 116.688358, 39.903024 ], [ 116.661131, 39.917962 ], [ 116.639316, 39.926801 ], [ 116.615574, 39.924477 ], [ 116.599722, 39.925696 ], [ 116.578266, 39.924201 ], [ 116.563961, 39.924021 ], [ 116.517429, 39.923168 ], [ 116.502045, 39.923076 ], [ 116.478115, 39.923556 ], [ 116.461618, 39.923337 ], [ 116.451657, 39.923054 ], [ 116.404192, 39.933848 ], [ 116.386829, 39.933247 ], [ 116.344082, 39.932466 ], [ 116.333701, 39.93241 ], [ 116.32568, 39.933022 ], [ 116.310683, 39.93234 ], [ 116.295467, 39.933268 ], [ 116.276531, 39.932584 ], [ 116.252914, 39.929503 ], [ 116.227292, 39.932422 ], [ 116.209920326950837, 39.933431365875109 ] ], [ [ 116.209920326950737, 39.933431365875109 ], [ 116.206932, 39.933605 ], [ 116.187004, 39.92785 ] ] ] } },
{ "type": "Feature", "properties": { "kn": "地铁2号线", "ln": "2号线", "cl": "0065B3", "ls": "110100023098" }, "geometry": { "type": "MultiLineString", "coordinates": [ [ [ 116.373126, 39.948653 ], [ 116.393776, 39.948972 ], [ 116.40824, 39.94918 ], [ 116.417069, 39.949336 ], [ 116.435842, 39.941626 ], [ 116.434133, 39.933801 ], [ 116.434584, 39.924499 ], [ 116.429287109512572, 39.910332340447752 ] ], [ [ 116.429287109512515, 39.91033234044761 ], [ 116.427287, 39.904983 ], [ 116.417093, 39.901063 ], [ 116.397937, 39.900192 ], [ 116.384209, 39.900098 ], [ 116.374314, 39.899765 ], [ 116.363355, 39.899433 ], [ 116.356009, 39.923686 ], [ 116.354357, 39.932397 ], [ 116.355426, 39.940474 ] ] ] } },
{ "type": "Feature", "properties": { "kn": "地铁8号线", "ln": "8号线", "cl": "018237", "ls": "110100023114" }, "geometry": { "type": "MultiLineString", "coordinates": [ [ [ 116.448982, 39.760713 ], [ 116.441467, 39.772649 ], [ 116.423903, 39.785046 ], [ 116.418627, 39.799287 ], [ 116.409427, 39.805074 ], [ 116.402073, 39.814838 ], [ 116.401045, 39.836715 ], [ 116.400301, 39.851805 ], [ 116.399839, 39.859262 ], [ 116.399369, 39.867435 ], [ 116.398712, 39.88192 ], [ 116.411178, 39.915387 ], [ 116.410803, 39.923705 ], [ 116.396219, 39.937583 ], [ 116.395145, 39.957227 ], [ 116.394999267704563, 39.96058181692355 ] ], [ [ 116.394999267704563, 39.960581816923558 ], [ 116.394655, 39.968507 ], [ 116.394193, 39.976953 ], [ 116.393759, 39.985837 ], [ 116.391758, 40.002207 ], [ 116.3926, 40.010122 ], [ 116.372998, 40.021906 ], [ 116.35458, 40.037728 ], [ 116.351644, 40.046873 ], [ 116.347328, 40.060039 ], [ 116.354362522249531, 40.066454649324349 ] ], [ [ 116.354362522249531, 40.066454649324356 ], [ 116.360286, 40.071857 ], [ 116.363025, 40.081175 ], [ 116.350425, 40.090607 ], [ 116.326992, 40.087863 ], [ 116.313698, 40.104297 ] ] ] } },
{ "type": "Feature", "properties": { "kn": "地铁5号线", "ln": "5号线", "cl": "A61D7F", "ls": "110100023100" }, "geometry": { "type": "MultiLineString", "coordinates": [ [ [ 116.428368, 39.845849 ], [ 116.422119, 39.857521 ], [ 116.423087, 39.865584 ], [ 116.420833, 39.882558 ], [ 116.41994, 39.893172 ], [ 116.417783, 39.917113 ], [ 116.417493, 39.92437 ], [ 116.417156, 39.933592 ], [ 116.416884, 39.940782 ], [ 116.418504, 39.958734 ], [ 116.418391558756326, 39.960785574449666 ] ], [ [ 116.418391558756326, 39.960785574449773 ], [ 116.417975, 39.968386 ], [ 116.417537, 39.977121 ], [ 116.417028, 39.987836 ], [ 116.417377, 40.003841 ], [ 116.418089, 40.030436 ], [ 116.414496, 40.041956 ], [ 116.41235, 40.053032 ], [ 116.412414824185063, 40.05583048716592 ] ], [ [ 116.412414824185063, 40.055830487165963 ], [ 116.412661, 40.066458 ], [ 116.412759, 40.075222 ], [ 116.412888, 40.083668 ] ] ] } },
{ "type": "Feature", "properties": { "kn": "地铁17号线北段", "ln": "17号线北段", "cl": "00AD8E", "ls": "900000073193" }, "geometry": { "type": "LineString", "coordinates": [ [ 116.469058, 40.130292 ], [ 116.466838, 40.115628 ], [ 116.442336, 40.068873 ], [ 116.442102, 40.050784 ], [ 116.441797, 40.033722 ], [ 116.439334, 39.964825 ], [ 116.44272, 39.949968 ], [ 116.450455, 39.934222 ] ] } },
{ "type": "Feature", "properties": { "kn": "地铁燕房线", "ln": "燕房线", "cl": "EE782E", "ls": "900000029622" }, "geometry": { "type": "LineString", "coordinates": [ [ 116.08672, 39.724606 ], [ 116.080165, 39.716731 ], [ 116.06137, 39.713681 ], [ 116.039906, 39.709893 ], [ 116.016606, 39.705103 ], [ 116.006103, 39.701471 ], [ 115.989599, 39.706061 ], [ 115.973395, 39.719615 ] ] } },
{ "type": "Feature", "properties": { "kn": "地铁房山线", "ln": "房山线", "cl": "EE782E", "ls": "110100023092" }, "geometry": { "type": "LineString", "coordinates": [ [ 116.100817, 39.729028 ], [ 116.125306, 39.723188 ], [ 116.140804, 39.723202 ], [ 116.156282, 39.723157 ], [ 116.176541, 39.723159 ], [ 116.18348, 39.729906 ], [ 116.184985, 39.74793 ], [ 116.189486, 39.760636 ], [ 116.212692, 39.763871 ], [ 116.21884, 39.794885 ], [ 116.291681, 39.80781 ], [ 116.313391, 39.81959 ], [ 116.320064, 39.829211 ] ] } },
{ "type": "Feature", "properties": { "kn": "地铁4号线大兴线", "ln": "4号线大兴线", "cl": "008187", "ls": "110100023076" }, "geometry": { "type": "MultiLineString", "coordinates": [ [ [ 116.319932, 39.670342 ], [ 116.321662, 39.68651 ], [ 116.319079, 39.712387 ], [ 116.332611, 39.722966 ], [ 116.332631, 39.731769 ], [ 116.332513, 39.742724 ], [ 116.332204, 39.753458 ], [ 116.331605, 39.763489 ], [ 116.330787, 39.773547 ], [ 116.328689, 39.7898 ], [ 116.365549, 39.812592 ], [ 116.370796, 39.836135 ], [ 116.371154, 39.84585 ], [ 116.371361, 39.853109 ], [ 116.378963, 39.865029 ], [ 116.374383, 39.87847 ], [ 116.374425, 39.889296 ], [ 116.373746, 39.915912 ], [ 116.373332, 39.924206 ], [ 116.372883, 39.933949 ], [ 116.367742, 39.940667 ], [ 116.339031, 39.93825 ], [ 116.330009686254542, 39.94142026732591 ] ], [ [ 116.330009686254314, 39.941420267325988 ], [ 116.32519, 39.943114 ], [ 116.32322, 39.957904 ], [ 116.321367, 39.966956 ], [ 116.317564, 39.975996 ], [ 116.316467, 39.983991 ], [ 116.315842, 39.992212 ], [ 116.310186, 39.999662 ], [ 116.290908, 39.998258 ], [ 116.277647, 40.002373 ], [ 116.269956, 40.012195 ] ] ] } },
{ "type": "Feature", "properties": { "kn": "地铁9号线", "ln": "9号线", "cl": "86B81C", "ls": "110100023116" }, "geometry": { "type": "MultiLineString", "coordinates": [ [ [ 116.301889, 39.814322 ], [ 116.297176, 39.825233 ], [ 116.297432, 39.83248 ], [ 116.296552, 39.841106 ], [ 116.293857, 39.855111 ], [ 116.294293, 39.866981 ], [ 116.302808, 39.880239 ], [ 116.315142, 39.886886 ], [ 116.317701171270784, 39.895785747021897 ] ], [ [ 116.317701171270784, 39.895785747021911 ], [ 116.325762, 39.923818 ] ] ] } },
{ "type": "Feature", "properties": { "kn": "地铁19号线", "ln": "19号线", "cl": "EB81B9", "ls": "900000079004" }, "geometry": { "type": "MultiLineString", "coordinates": [ [ [ 116.346333, 39.823455 ], [ 116.363481, 39.889605 ], [ 116.363245, 39.909755 ], [ 116.36982906844915, 39.966708880307792 ] ], [ [ 116.36982906844915, 39.966708880307863 ], [ 116.37007, 39.968793 ] ] ] } },
{ "type": "Feature", "properties": { "kn": "S1线", "ln": "S1线", "cl": "B35A1F", "ls": "900000069871" }, "geometry": { "type": "LineString", "coordinates": [ [ 116.179140318767764, 39.925393877472658 ], [ 116.177656288523352, 39.925017189880968 ], [ 116.176036396355144, 39.924594415700632 ], [ 116.173089237700736, 39.923969266156888 ], [ 116.171364836360411, 39.923712792897931 ], [ 116.16945231851021, 39.923560511445864 ], [ 116.164446329164605, 39.923568526267566 ], [ 116.161938109033187, 39.923576541088345 ], [ 116.159503045322282, 39.923592570727067 ], [ 116.156420024744094, 39.923768896505415 ], [ 116.152009737679691, 39.923808970482618 ], [ 116.151466289984569, 39.92379294089455 ], [ 116.15086013678615, 39.923616615178126 ], [ 116.150379394594296, 39.923384185130843 ], [ 116.150076317995087, 39.923143739424034 ], [ 116.148665444171172, 39.921652957195072 ], [ 116.148205603813722, 39.921236173562008 ], [ 116.147902527214512, 39.921027780794141 ], [ 116.147348628602174, 39.920759273792818 ], [ 116.146700671734877, 39.920534849222733 ], [ 116.14603181303319, 39.920374545508047 ], [ 116.144756801133056, 39.92009401310434 ], [ 116.141731260599556, 39.919621113022195 ], [ 116.139829193666586, 39.919312523919594 ], [ 116.139353676933311, 39.919176263353769 ], [ 116.139233491385369, 39.919120155983158 ], [ 116.139014022123888, 39.919040002516823 ], [ 116.138841581989823, 39.91894782591455 ], [ 116.138224977874188, 39.918607172177396 ], [ 116.13739412995568, 39.918089174864896 ], [ 116.13401, 39.91603 ], [ 116.13163567457066, 39.914608371766249 ], [ 116.13030318262588, 39.913778724194501 ], [ 116.129921724147565, 39.913552272749094 ], [ 116.129561167503653, 39.913311792518314 ], [ 116.128840054215885, 39.91292301435935 ], [ 116.12811894092809, 39.91264245143045 ], [ 116.127460533143619, 39.912514193708759 ], [ 116.126582656097639, 39.912428020417103 ], [ 116.125527113458986, 39.912375915583517 ], [ 116.124508149030632, 39.912283730011602 ], [ 116.12366685019488, 39.912203568543859 ], [ 116.123248813506322, 39.912139439302138 ], [ 116.123029344244813, 39.912083326166368 ], [ 116.122705365811171, 39.911967091667471 ], [ 116.122376161918922, 39.911810775995889 ], [ 116.122088761695537, 39.911598346434509 ], [ 116.121775234179097, 39.911265672401449 ], [ 116.12161324496229, 39.910985102683895 ], [ 116.12151918670736, 39.91069250732572 ], [ 116.121493059414334, 39.910496107000718 ], [ 116.121498284872942, 39.910255616039905 ], [ 116.121555764917616, 39.909708495958704 ], [ 116.121933304301947, 39.907117131597559 ], [ 116.122225, 39.905138 ], [ 116.122724961280937, 39.901595374794113 ], [ 116.122808568618638, 39.900741517138201 ], [ 116.122907852332162, 39.90003998293313 ], [ 116.12298100875266, 39.899270291428422 ], [ 116.123072454278287, 39.898184891451187 ], [ 116.123156061616001, 39.897298919723767 ], [ 116.123192639826257, 39.896825862255703 ], [ 116.123254, 39.89578 ], [ 116.123307599915606, 39.89486444295931 ], [ 116.12333111447937, 39.893615098849835 ], [ 116.12335593540773, 39.892398307004477 ], [ 116.123261877152828, 39.89199738239013 ], [ 116.122979702388022, 39.891430070054014 ], [ 116.122509411113384, 39.890948953439391 ], [ 116.122007767087112, 39.890652263177095 ], [ 116.121370261137017, 39.890395665157911 ], [ 116.120847715276312, 39.890315478079934 ], [ 116.120492384091051, 39.890283403222483 ], [ 116.114443, 39.890465 ], [ 116.11271501952919, 39.890521641290171 ], [ 116.11078675968254, 39.890392541472877 ], [ 116.10995386606173, 39.890430824454171 ], [ 116.1063083159884, 39.891044343034807 ], [ 116.104898244733633, 39.891268638779572 ], [ 116.104571520906291, 39.891321414142276 ], [ 116.103961063228908, 39.891288429545348 ], [ 116.103574153433385, 39.891262041856386 ], [ 116.103092665687839, 39.891156490998931 ], [ 116.102705755892345, 39.890998164408003 ], [ 116.102189876164985, 39.89075407686385 ], [ 116.100334, 39.889378 ] ] } },
{ "type": "Feature", "properties": { "kn": "地铁10号线", "ln": "10号线", "cl": "019AC3", "ls": "110100023282" }, "geometry": { "type": "MultiLineString", "coordinates": [ [ [ 116.293357, 39.974414 ], [ 116.306332, 39.975642 ], [ 116.328709, 39.976334 ], [ 116.33996, 39.976476 ], [ 116.354314, 39.976372 ], [ 116.369844, 39.976603 ], [ 116.381353, 39.976723 ], [ 116.405954, 39.977005 ], [ 116.435914, 39.977636 ], [ 116.448317, 39.973757 ], [ 116.456997, 39.961508 ], [ 116.461794, 39.949415 ], [ 116.461724, 39.941344 ], [ 116.461806, 39.933747 ], [ 116.461743, 39.916838 ], [ 116.461325, 39.884387 ], [ 116.460926, 39.875387 ], [ 116.458103, 39.866135 ], [ 116.453976, 39.852227 ], [ 116.447531, 39.845874 ], [ 116.414103, 39.845905 ], [ 116.399154, 39.845383 ], [ 116.385649, 39.845135 ], [ 116.351387, 39.845869 ], [ 116.333381, 39.844433 ], [ 116.320202, 39.844463 ], [ 116.304501, 39.850249 ], [ 116.304173, 39.858609 ], [ 116.304106, 39.866676 ], [ 116.309930798222112, 39.895786924746993 ] ], [ [ 116.309930798222126, 39.895786924747107 ], [ 116.310347, 39.897867 ], [ 116.298064, 39.923481 ], [ 116.293818, 39.947923 ], [ 116.294255, 39.958527 ], [ 116.289058, 39.965938 ] ] ] } },
{ "type": "Feature", "properties": { "kn": "地铁11号线", "ln": "11号线", "cl": "EE3F42", "ls": "900000159716" }, "geometry": { "type": "LineString", "coordinates": [ [ 116.156148, 39.933369 ], [ 116.164755, 39.915456 ], [ 116.164806, 39.90961 ] ] } },
{ "type": "Feature", "properties": { "kn": "地铁14号线", "ln": "14号线", "cl": "E4A8A3", "ls": "900000028907" }, "geometry": { "type": "MultiLineString", "coordinates": [ [ [ 116.478195, 40.02716 ], [ 116.466999, 40.02043 ], [ 116.467415, 40.010566 ], [ 116.469409, 39.998521 ], [ 116.471544, 39.991835 ], [ 116.48188, 39.98467 ], [ 116.490213, 39.971026 ], [ 116.485919, 39.958375 ], [ 116.474947, 39.944132 ], [ 116.478291, 39.933492 ], [ 116.477307, 39.885275 ], [ 116.477282, 39.875294 ], [ 116.440244, 39.865864 ], [ 116.436701367639884, 39.865789553553661 ] ], [ [ 116.436701367639884, 39.865789553553661 ], [ 116.411026, 39.86525 ], [ 116.366033, 39.862631 ], [ 116.355953, 39.861358 ], [ 116.342444, 39.867627 ], [ 116.331268, 39.867718 ], [ 116.321197, 39.86757 ], [ 116.276061, 39.865226 ], [ 116.253068, 39.864841 ], [ 116.24048, 39.85947 ], [ 116.201643, 39.861328 ], [ 116.187193, 39.8581 ] ] ] } },
{ "type": "Feature", "properties": { "kn": "地铁16号线", "ln": "16号线", "cl": "6CB46B", "ls": "900000062236" }, "geometry": { "type": "LineString", "coordinates": [ [ 116.130428, 40.068128 ], [ 116.161361, 40.068516 ], [ 116.188145, 40.068936 ], [ 116.21585, 40.068454 ], [ 116.238481, 40.071868 ], [ 116.248154, 40.065575 ], [ 116.257923, 40.048703 ], [ 116.27252, 40.032637 ], [ 116.282272, 40.021398 ], [ 116.300157, 39.985067 ], [ 116.308092, 39.962052 ], [ 116.309904, 39.947773 ], [ 116.334534, 39.923392 ], [ 116.334546, 39.914042 ], [ 116.336668, 39.877533 ], [ 116.323133, 39.855638 ], [ 116.287023, 39.836228 ], [ 116.272519, 39.83491 ], [ 116.258964, 39.838742 ], [ 116.249321, 39.848538 ], [ 116.229571, 39.849056 ] ] } },
{ "type": "Feature", "properties": { "kn": "首都机场线", "ln": "首都机场线", "cl": "A49ABD", "ls": "110100023096" }, "geometry": { "type": "LineString", "coordinates": [ [ 116.615583, 40.052657 ], [ 116.592808, 40.079311 ] ] } },
{ "type": "Feature", "properties": { "kn": "地铁15号线", "ln": "15号线", "cl": "793E8C", "ls": "110100023070" }, "geometry": { "type": "LineString", "coordinates": [ [ 116.684732, 40.132573 ], [ 116.657023, 40.129994 ], [ 116.641117, 40.129802 ], [ 116.609535, 40.128478 ], [ 116.564211, 40.114127 ], [ 116.557593, 40.084436 ], [ 116.555127, 40.07003 ], [ 116.5347, 40.045113 ], [ 116.50348, 40.033721 ], [ 116.492968, 40.022201 ], [ 116.487105, 40.0032 ], [ 116.430947, 40.001134 ], [ 116.407845, 40.002619 ], [ 116.368143, 40.001492 ], [ 116.35275, 40.000044 ], [ 116.33953, 40.000673 ] ] } },
{ "type": "Feature", "properties": { "kn": "西郊线", "ln": "西郊线", "cl": "FC0601", "ls": "110100023060" }, "geometry": { "type": "LineString", "coordinates": [ [ 116.263248, 39.985697 ], [ 116.2481, 39.982113 ], [ 116.231977, 39.984001 ], [ 116.215722, 39.993537 ], [ 116.204491, 39.994056 ] ] } },
{ "type": "Feature", "properties": { "kn": "地铁13号线", "ln": "13号线", "cl": "FCD600", "ls": "110100033066" }, "geometry": { "type": "MultiLineString", "coordinates": [ [ [ 116.345139, 39.966612 ], [ 116.337742, 39.992894 ], [ 116.320193, 40.033007 ], [ 116.314961, 40.041164 ], [ 116.306295, 40.053034 ], [ 116.319429, 40.070882 ], [ 116.336116, 40.0708 ], [ 116.374716301492271, 40.05989367510427 ] ], [ [ 116.374716301492384, 40.059893675104234 ], [ 116.402083891737306, 40.052161097396677 ] ], [ [ 116.402083891737334, 40.05216109739667 ], [ 116.434518, 40.042997 ], [ 116.449884, 39.995724 ], [ 116.431761, 39.968337 ], [ 116.432728, 39.958157 ] ] ] } },
{ "type": "Feature", "properties": { "kn": "地铁昌平线", "ln": "昌平线", "cl": "EB81B9", "ls": "110100023118" }, "geometry": { "type": "LineString", "coordinates": [ [ 116.195371, 40.244624 ], [ 116.207729, 40.240255 ], [ 116.23359, 40.22055 ], [ 116.262059, 40.221726 ], [ 116.281949, 40.222001 ], [ 116.287534, 40.207492 ], [ 116.280465, 40.164666 ], [ 116.288865, 40.148278 ], [ 116.293979, 40.1309 ], [ 116.29423, 40.09479 ], [ 116.333318, 40.036122 ], [ 116.343739, 40.034723 ], [ 116.352195, 40.015011 ], [ 116.353438, 39.988206 ] ] } }
]
}
