{
"type": "FeatureCollection",
"name": "metro_stations",
"crs": { "type": "name", "properties": { "name": "urn:ogc:def:crs:OGC:1.3:CRS84" } },
"features": [
{ "type": "Feature", "properties": { "name": "北苑路北" }, "geometry": { "type": "Point", "coordinates": [ 116.4119016, 40.029019199999986 ] } },
{ "type": "Feature", "properties": { "name": "衙门口" }, "geometry": { "type": "Point", "coordinates": [ 116.197616, 39.8989948 ] } },
{ "type": "Feature", "properties": { "name": "首都机场2号航站楼" }, "geometry": { "type": "Point", "coordinates": [ 116.58714190000002, 40.078012600000235 ] } },
{ "type": "Feature", "properties": { "name": "枣营" }, "geometry": { "type": "Point", "coordinates": [ 116.469013600000011, 39.942932 ] } },
{ "type": "Feature", "properties": { "name": "朝阳公园" }, "geometry": { "type": "Point", "coordinates": [ 116.472528400000016, 39.932309600000018 ] } },
{ "type": "Feature", "properties": { "name": "大井" }, "geometry": { "type": "Point", "coordinates": [ 116.2688628, 39.864019 ] } },
{ "type": "Feature", "properties": { "name": "大瓦窑" }, "geometry": { "type": "Point", "coordinates": [ 116.234452300000015, 39.8583275 ] } },
{ "type": "Feature", "properties": { "name": "郭庄子" }, "geometry": { "type": "Point", "coordinates": [ 116.2483861, 39.8640535 ] } },
{ "type": "Feature", "properties": { "name": "七里庄" }, "geometry": { "type": "Point", "coordinates": [ 116.288166500000031, 39.865240200000024 ] } },
{ "type": "Feature", "properties": { "name": "西局" }, "geometry": { "type": "Point", "coordinates": [ 116.297807599999956, 39.8652242 ] } },
{ "type": "Feature", "properties": { "name": "东管头" }, "geometry": { "type": "Point", "coordinates": [ 116.31443670000003, 39.8661164 ] } },
{ "type": "Feature", "properties": { "name": "丽泽商务区" }, "geometry": { "type": "Point", "coordinates": [ 116.325602900000035, 39.8662759 ] } },
{ "type": "Feature", "properties": { "name": "景风门" }, "geometry": { "type": "Point", "coordinates": [ 116.359090308922347, 39.862019154465976 ] } },
{ "type": "Feature", "properties": { "name": "菜户营" }, "geometry": { "type": "Point", "coordinates": [ 116.336681900000031, 39.8662594 ] } },
{ "type": "Feature", "properties": { "name": "景泰" }, "geometry": { "type": "Point", "coordinates": [ 116.404940899999986, 39.863649399999979 ] } },
{ "type": "Feature", "properties": { "name": "蒲黄榆" }, "geometry": { "type": "Point", "coordinates": [ 116.415461200000024, 39.8643287 ] } },
{ "type": "Feature", "properties": { "name": "陶然桥" }, "geometry": { "type": "Point", "coordinates": [ 116.3816795, 39.8675967 ] } },
{ "type": "Feature", "properties": { "name": "十里河" }, "geometry": { "type": "Point", "coordinates": [ 116.453521458254556, 39.864120654075158 ] } },
{ "type": "Feature", "properties": { "name": "方庄" }, "geometry": { "type": "Point", "coordinates": [ 116.433934799999975, 39.8646354 ] } },
{ "type": "Feature", "properties": { "name": "东风北桥" }, "geometry": { "type": "Point", "coordinates": [ 116.47896870000001, 39.9583029 ] } },
{ "type": "Feature", "properties": { "name": "九龙山" }, "geometry": { "type": "Point", "coordinates": [ 116.471684900000028, 39.8921089 ] } },
{ "type": "Feature", "properties": { "name": "大望路" }, "geometry": { "type": "Point", "coordinates": [ 116.471227200000016, 39.9069399 ] } },
{ "type": "Feature", "properties": { "name": "平乐园" }, "geometry": { "type": "Point", "coordinates": [ 116.471341100000018, 39.883851399999983 ] } },
{ "type": "Feature", "properties": { "name": "北工大西门" }, "geometry": { "type": "Point", "coordinates": [ 116.4713573, 39.873642400000016 ] } },
{ "type": "Feature", "properties": { "name": "东湖渠" }, "geometry": { "type": "Point", "coordinates": [ 116.4611561, 40.0091272 ] } },
{ "type": "Feature", "properties": { "name": "善各庄" }, "geometry": { "type": "Point", "coordinates": [ 116.472661649899962, 40.026451100050181 ] } },
{ "type": "Feature", "properties": { "name": "将台" }, "geometry": { "type": "Point", "coordinates": [ 116.48404469999997, 39.9694941 ] } },
{ "type": "Feature", "properties": { "name": "望京" }, "geometry": { "type": "Point", "coordinates": [ 116.462427899999966, 39.996566299999984 ] } },
{ "type": "Feature", "properties": { "name": "来广营" }, "geometry": { "type": "Point", "coordinates": [ 116.460787100000019, 40.0191988 ] } },
{ "type": "Feature", "properties": { "name": "阜通" }, "geometry": { "type": "Point", "coordinates": [ 116.4650632, 39.9906798 ] } },
{ "type": "Feature", "properties": { "name": "化工" }, "geometry": { "type": "Point", "coordinates": [ 116.497517199999976, 39.8840067 ] } },
{ "type": "Feature", "properties": { "name": "南楼梓庄" }, "geometry": { "type": "Point", "coordinates": [ 116.495412399999978, 39.8733935 ] } },
{ "type": "Feature", "properties": { "name": "双井" }, "geometry": { "type": "Point", "coordinates": [ 116.455231400000017, 39.892093299999985 ] } },
{ "type": "Feature", "properties": { "name": "双合" }, "geometry": { "type": "Point", "coordinates": [ 116.522345299999984, 39.858138499999981 ] } },
{ "type": "Feature", "properties": { "name": "垡头" }, "geometry": { "type": "Point", "coordinates": [ 116.505715599999974, 39.859574 ] } },
{ "type": "Feature", "properties": { "name": "大郊亭" }, "geometry": { "type": "Point", "coordinates": [ 116.481349899999955, 39.8921857 ] } },
{ "type": "Feature", "properties": { "name": "广安门内" }, "geometry": { "type": "Point", "coordinates": [ 116.351727, 39.8885681 ] } },
{ "type": "Feature", "properties": { "name": "广渠门外" }, "geometry": { "type": "Point", "coordinates": [ 116.443035100000017, 39.892306599999984 ] } },
{ "type": "Feature", "properties": { "name": "桥湾" }, "geometry": { "type": "Point", "coordinates": [ 116.402248500000042, 39.891284899999988 ] } },
{ "type": "Feature", "properties": { "name": "广渠门内" }, "geometry": { "type": "Point", "coordinates": [ 116.4277207, 39.8922863 ] } },
{ "type": "Feature", "properties": { "name": "欢乐谷景区" }, "geometry": { "type": "Point", "coordinates": [ 116.493083800000022, 39.8656674 ] } },
{ "type": "Feature", "properties": { "name": "焦化厂" }, "geometry": { "type": "Point", "coordinates": [ 116.531614, 39.854289599999987 ] } },
{ "type": "Feature", "properties": { "name": "百子湾" }, "geometry": { "type": "Point", "coordinates": [ 116.4902447, 39.8913756 ] } },
{ "type": "Feature", "properties": { "name": "磁器口" }, "geometry": { "type": "Point", "coordinates": [ 116.41261990000001, 39.8917025 ] } },
{ "type": "Feature", "properties": { "name": "菜市口" }, "geometry": { "type": "Point", "coordinates": [ 116.368216400000023, 39.887991 ] } },
{ "type": "Feature", "properties": { "name": "虎坊桥" }, "geometry": { "type": "Point", "coordinates": [ 116.377480600000013, 39.888397499999989 ] } },
{ "type": "Feature", "properties": { "name": "达官营" }, "geometry": { "type": "Point", "coordinates": [ 116.32937170000001, 39.888892 ] } },
{ "type": "Feature", "properties": { "name": "关庄" }, "geometry": { "type": "Point", "coordinates": [ 116.425058399999969, 39.9997494 ] } },
{ "type": "Feature", "properties": { "name": "北沙滩" }, "geometry": { "type": "Point", "coordinates": [ 116.362043199999974, 40.000123799999983 ] } },
{ "type": "Feature", "properties": { "name": "奥林匹克公园" }, "geometry": { "type": "Point", "coordinates": [ 116.386045702614553, 40.000640152201562 ] } },
{ "type": "Feature", "properties": { "name": "安立路" }, "geometry": { "type": "Point", "coordinates": [ 116.40162159999997, 40.001177899999988 ] } },
{ "type": "Feature", "properties": { "name": "清华东路西口" }, "geometry": { "type": "Point", "coordinates": [ 116.333626199999969, 39.999303799999986 ] } },
{ "type": "Feature", "properties": { "name": "宛平城" }, "geometry": { "type": "Point", "coordinates": [ 116.223397199999965, 39.847731299999985 ] } },
{ "type": "Feature", "properties": { "name": "榆树庄" }, "geometry": { "type": "Point", "coordinates": [ 116.252982400000022, 39.8375683 ] } },
{ "type": "Feature", "properties": { "name": "富丰桥" }, "geometry": { "type": "Point", "coordinates": [ 116.281093200000015, 39.8349394 ] } },
{ "type": "Feature", "properties": { "name": "红莲南路" }, "geometry": { "type": "Point", "coordinates": [ 116.330798200000032, 39.8762703 ] } },
{ "type": "Feature", "properties": { "name": "木樨地" }, "geometry": { "type": "Point", "coordinates": [ 116.329638821367766, 39.906908915251257 ] } },
{ "type": "Feature", "properties": { "name": "玉渊潭东门" }, "geometry": { "type": "Point", "coordinates": [ 116.328872, 39.9139393 ] } },
{ "type": "Feature", "properties": { "name": "甘家口" }, "geometry": { "type": "Point", "coordinates": [ 116.328505200000052, 39.922439 ] } },
{ "type": "Feature", "properties": { "name": "万寿寺" }, "geometry": { "type": "Point", "coordinates": [ 116.303292600000049, 39.9471407 ] } },
{ "type": "Feature", "properties": { "name": "苏州桥" }, "geometry": { "type": "Point", "coordinates": [ 116.301564250123832, 39.960999350010859 ] } },
{ "type": "Feature", "properties": { "name": "万泉河桥" }, "geometry": { "type": "Point", "coordinates": [ 116.29426460000002, 39.9839185 ] } },
{ "type": "Feature", "properties": { "name": "农大南路" }, "geometry": { "type": "Point", "coordinates": [ 116.277028299999941, 40.0184431 ] } },
{ "type": "Feature", "properties": { "name": "马连洼" }, "geometry": { "type": "Point", "coordinates": [ 116.267126900424884, 40.03141675727413 ] } },
{ "type": "Feature", "properties": { "name": "西北旺" }, "geometry": { "type": "Point", "coordinates": [ 116.252078100000048, 40.0478932 ] } },
{ "type": "Feature", "properties": { "name": "永丰南" }, "geometry": { "type": "Point", "coordinates": [ 116.243542799999986, 40.0630145 ] } },
{ "type": "Feature", "properties": { "name": "屯佃" }, "geometry": { "type": "Point", "coordinates": [ 116.209333699999959, 40.0673089 ] } },
{ "type": "Feature", "properties": { "name": "温阳路" }, "geometry": { "type": "Point", "coordinates": [ 116.155714044334445, 40.067531425090785 ] } },
{ "type": "Feature", "properties": { "name": "北安河" }, "geometry": { "type": "Point", "coordinates": [ 116.12433616081465, 40.066875275007867 ] } },
{ "type": "Feature", "properties": { "name": "北京" }, "geometry": { "type": "Point", "coordinates": [ 116.420954400000028, 39.9035987 ] } },
{ "type": "Feature", "properties": { "name": "北京南" }, "geometry": { "type": "Point", "coordinates": [ 116.373035648881554, 39.863827700342789 ] } },
{ "type": "Feature", "properties": { "name": "惠新西街北口" }, "geometry": { "type": "Point", "coordinates": [ 116.410906800000021, 39.9861781 ] } },
{ "type": "Feature", "properties": { "name": "惠新西街南口" }, "geometry": { "type": "Point", "coordinates": [ 116.411355400000019, 39.975958799999979 ] } },
{ "type": "Feature", "properties": { "name": "和平西桥" }, "geometry": { "type": "Point", "coordinates": [ 116.411799399981845, 39.967505900006586 ] } },
{ "type": "Feature", "properties": { "name": "雍和宫" }, "geometry": { "type": "Point", "coordinates": [ 116.410853845196272, 39.947449402034295 ] } },
{ "type": "Feature", "properties": { "name": "灯市口" }, "geometry": { "type": "Point", "coordinates": [ 116.411835499999981, 39.915410299999976 ] } },
{ "type": "Feature", "properties": { "name": "东四" }, "geometry": { "type": "Point", "coordinates": [ 116.410951461778737, 39.923046977130831 ] } },
{ "type": "Feature", "properties": { "name": "什刹海" }, "geometry": { "type": "Point", "coordinates": [ 116.390064699999968, 39.935952799999981 ] } },
{ "type": "Feature", "properties": { "name": "鼓楼大街" }, "geometry": { "type": "Point", "coordinates": [ 116.387777499180601, 39.947137350093421 ] } },
{ "type": "Feature", "properties": { "name": "安华桥" }, "geometry": { "type": "Point", "coordinates": [ 116.388398399999986, 39.9671117 ] } },
{ "type": "Feature", "properties": { "name": "北土城" }, "geometry": { "type": "Point", "coordinates": [ 116.387926300000018, 39.9763987 ] } },
{ "type": "Feature", "properties": { "name": "森林公园南门" }, "geometry": { "type": "Point", "coordinates": [ 116.386400200000026, 40.009195 ] } },
{ "type": "Feature", "properties": { "name": "霍营" }, "geometry": { "type": "Point", "coordinates": [ 116.354172652282983, 40.069918050371015 ] } },
{ "type": "Feature", "properties": { "name": "林萃桥" }, "geometry": { "type": "Point", "coordinates": [ 116.3667905, 40.020600100000031 ] } },
{ "type": "Feature", "properties": { "name": "永泰庄" }, "geometry": { "type": "Point", "coordinates": [ 116.348330200000021, 40.0366785 ] } },
{ "type": "Feature", "properties": { "name": "西小口" }, "geometry": { "type": "Point", "coordinates": [ 116.345163899999974, 40.046067899999969 ] } },
{ "type": "Feature", "properties": { "name": "回龙观东大街" }, "geometry": { "type": "Point", "coordinates": [ 116.357184899999979, 40.0797507 ] } },
{ "type": "Feature", "properties": { "name": "平西府" }, "geometry": { "type": "Point", "coordinates": [ 116.344190199999986, 40.0886607 ] } },
{ "type": "Feature", "properties": { "name": "巩华城" }, "geometry": { "type": "Point", "coordinates": [ 116.287875899999975, 40.1296641 ] } },
{ "type": "Feature", "properties": { "name": "沙河" }, "geometry": { "type": "Point", "coordinates": [ 116.2827677, 40.1470443 ] } },
{ "type": "Feature", "properties": { "name": "沙河高教园" }, "geometry": { "type": "Point", "coordinates": [ 116.274385699999968, 40.163399299999988 ] } },
{ "type": "Feature", "properties": { "name": "昌平西山口" }, "geometry": { "type": "Point", "coordinates": [ 116.189380799999967, 40.243313 ] } },
{ "type": "Feature", "properties": { "name": "十三陵景区" }, "geometry": { "type": "Point", "coordinates": [ 116.201846499999988, 40.238635299999984 ] } },
{ "type": "Feature", "properties": { "name": "昌平" }, "geometry": { "type": "Point", "coordinates": [ 116.227486900000031, 40.2193139 ] } },
{ "type": "Feature", "properties": { "name": "南邵" }, "geometry": { "type": "Point", "coordinates": [ 116.281971, 40.2066479 ] } },
{ "type": "Feature", "properties": { "name": "北邵洼" }, "geometry": { "type": "Point", "coordinates": [ 116.2754466, 40.2206969 ] } },
{ "type": "Feature", "properties": { "name": "昌平东关" }, "geometry": { "type": "Point", "coordinates": [ 116.256714499999987, 40.2205477 ] } },
{ "type": "Feature", "properties": { "name": "马各庄" }, "geometry": { "type": "Point", "coordinates": [ 116.010549566667564, 39.703775700000186 ] } },
{ "type": "Feature", "properties": { "name": "十里堡" }, "geometry": { "type": "Point", "coordinates": [ 116.496042399999965, 39.921626899999985 ] } },
{ "type": "Feature", "properties": { "name": "潘家园" }, "geometry": { "type": "Point", "coordinates": [ 116.45497050000003, 39.8748619 ] } },
{ "type": "Feature", "properties": { "name": "分钟寺" }, "geometry": { "type": "Point", "coordinates": [ 116.447588, 39.850614899999989 ] } },
{ "type": "Feature", "properties": { "name": "大屯路东" }, "geometry": { "type": "Point", "coordinates": [ 116.411629652585717, 40.00185275138449 ] } },
{ "type": "Feature", "properties": { "name": "阎村" }, "geometry": { "type": "Point", "coordinates": [ 116.073968700000052, 39.715288 ] } },
{ "type": "Feature", "properties": { "name": "房山城关" }, "geometry": { "type": "Point", "coordinates": [ 115.983597600000024, 39.7046285 ] } },
{ "type": "Feature", "properties": { "name": "燕山" }, "geometry": { "type": "Point", "coordinates": [ 115.9674631, 39.7184583 ] } },
{ "type": "Feature", "properties": { "name": "望京西" }, "geometry": { "type": "Point", "coordinates": [ 116.441704499999986, 39.9941582 ] } },
{ "type": "Feature", "properties": { "name": "天宫院" }, "geometry": { "type": "Point", "coordinates": [ 116.313905500000047, 39.6689886 ] } },
{ "type": "Feature", "properties": { "name": "东夏园" }, "geometry": { "type": "Point", "coordinates": [ 116.727307186511524, 39.902219000016814 ] } },
{ "type": "Feature", "properties": { "name": "和平门" }, "geometry": { "type": "Point", "coordinates": [ 116.377775099999937, 39.8986925 ] } },
{ "type": "Feature", "properties": { "name": "动物园" }, "geometry": { "type": "Point", "coordinates": [ 116.332733, 39.9369392 ] } },
{ "type": "Feature", "properties": { "name": "北新桥" }, "geometry": { "type": "Point", "coordinates": [ 116.411411798803698, 39.939540801170416 ] } },
{ "type": "Feature", "properties": { "name": "国家图书馆" }, "geometry": { "type": "Point", "coordinates": [ 116.318728400000012, 39.9412214 ] } },
{ "type": "Feature", "properties": { "name": "劲松" }, "geometry": { "type": "Point", "coordinates": [ 116.4551162, 39.8830661 ] } },
{ "type": "Feature", "properties": { "name": "良乡南关" }, "geometry": { "type": "Point", "coordinates": [ 116.134239699999981, 39.7218824 ] } },
{ "type": "Feature", "properties": { "name": "角门东" }, "geometry": { "type": "Point", "coordinates": [ 116.378807600000016, 39.8438402 ] } },
{ "type": "Feature", "properties": { "name": "同济南路" }, "geometry": { "type": "Point", "coordinates": [ 116.533948, 39.7718151 ] } },
{ "type": "Feature", "properties": { "name": "芍药居" }, "geometry": { "type": "Point", "coordinates": [ 116.4297381, 39.9759527 ] } },
{ "type": "Feature", "properties": { "name": "复兴门" }, "geometry": { "type": "Point", "coordinates": [ 116.350510699999987, 39.905948 ] } },
{ "type": "Feature", "properties": { "name": "知春路" }, "geometry": { "type": "Point", "coordinates": [ 116.334390200000016, 39.9750927 ] } },
{ "type": "Feature", "properties": { "name": "军事博物馆" }, "geometry": { "type": "Point", "coordinates": [ 116.316550600265131, 39.906141506996192 ] } },
{ "type": "Feature", "properties": { "name": "宣武门" }, "geometry": { "type": "Point", "coordinates": [ 116.368014100000025, 39.8983866 ] } },
{ "type": "Feature", "properties": { "name": "崇文门" }, "geometry": { "type": "Point", "coordinates": [ 116.411956699999976, 39.89973710000001 ] } },
{ "type": "Feature", "properties": { "name": "公主坟" }, "geometry": { "type": "Point", "coordinates": [ 116.30412530000001, 39.9061762 ] } },
{ "type": "Feature", "properties": { "name": "东单" }, "geometry": { "type": "Point", "coordinates": [ 116.412626, 39.9068579 ] } },
{ "type": "Feature", "properties": { "name": "东直门" }, "geometry": { "type": "Point", "coordinates": [ 116.42845959820977, 39.940319751977945 ] } },
{ "type": "Feature", "properties": { "name": "呼家楼" }, "geometry": { "type": "Point", "coordinates": [ 116.4554956, 39.9220995 ] } },
{ "type": "Feature", "properties": { "name": "公益西桥" }, "geometry": { "type": "Point", "coordinates": [ 116.364671499999972, 39.835263199999986 ] } },
{ "type": "Feature", "properties": { "name": "巴沟" }, "geometry": { "type": "Point", "coordinates": [ 116.287428600000041, 39.9732969 ] } },
{ "type": "Feature", "properties": { "name": "郭公庄" }, "geometry": { "type": "Point", "coordinates": [ 116.296028099999987, 39.8133778 ] } },
{ "type": "Feature", "properties": { "name": "马泉营" }, "geometry": { "type": "Point", "coordinates": [ 116.498310299999986, 40.032551299999987 ] } },
{ "type": "Feature", "properties": { "name": "六里桥" }, "geometry": { "type": "Point", "coordinates": [ 116.296899700000012, 39.8786861 ] } },
{ "type": "Feature", "properties": { "name": "西直门" }, "geometry": { "type": "Point", "coordinates": [ 116.348094529021623, 39.93989290573721 ] } },
{ "type": "Feature", "properties": { "name": "北运河西" }, "geometry": { "type": "Point", "coordinates": [ 116.681909775008904, 39.901835275017497 ] } },
{ "type": "Feature", "properties": { "name": "四惠东" }, "geometry": { "type": "Point", "coordinates": [ 116.509481100000016, 39.9073037 ] } },
{ "type": "Feature", "properties": { "name": "四惠" }, "geometry": { "type": "Point", "coordinates": [ 116.489381899999955, 39.9075722 ] } },
{ "type": "Feature", "properties": { "name": "建国门" }, "geometry": { "type": "Point", "coordinates": [ 116.4292321, 39.907159400000012 ] } },
{ "type": "Feature", "properties": { "name": "平安里" }, "geometry": { "type": "Point", "coordinates": [ 116.364465833402406, 39.931907617202498 ] } },
{ "type": "Feature", "properties": { "name": "车公庄" }, "geometry": { "type": "Point", "coordinates": [ 116.3493426, 39.9311554 ] } },
{ "type": "Feature", "properties": { "name": "角门西" }, "geometry": { "type": "Point", "coordinates": [ 116.364924601864644, 39.844494300089082 ] } },
{ "type": "Feature", "properties": { "name": "慈寿寺" }, "geometry": { "type": "Point", "coordinates": [ 116.288862599999959, 39.93155860000001 ] } },
{ "type": "Feature", "properties": { "name": "国贸" }, "geometry": { "type": "Point", "coordinates": [ 116.455647400000018, 39.9070164 ] } },
{ "type": "Feature", "properties": { "name": "朝阳门" }, "geometry": { "type": "Point", "coordinates": [ 116.427950400000057, 39.923064699999983 ] } },
{ "type": "Feature", "properties": { "name": "西二旗" }, "geometry": { "type": "Point", "coordinates": [ 116.300181300000062, 40.051716499999976 ] } },
{ "type": "Feature", "properties": { "name": "西单" }, "geometry": { "type": "Point", "coordinates": [ 116.3682035, 39.9057386 ] } },
{ "type": "Feature", "properties": { "name": "白石桥南" }, "geometry": { "type": "Point", "coordinates": [ 116.318912096193756, 39.931821300924248 ] } },
{ "type": "Feature", "properties": { "name": "回龙观" }, "geometry": { "type": "Point", "coordinates": [ 116.329755, 40.069525 ] } },
{ "type": "Feature", "properties": { "name": "郝家府" }, "geometry": { "type": "Point", "coordinates": [ 116.711159499999937, 39.9021403 ] } },
{ "type": "Feature", "properties": { "name": "宋家庄" }, "geometry": { "type": "Point", "coordinates": [ 116.4219287, 39.8443821 ] } },
{ "type": "Feature", "properties": { "name": "褡裢坡" }, "geometry": { "type": "Point", "coordinates": [ 116.5581345, 39.922673099999983 ] } },
{ "type": "Feature", "properties": { "name": "北苑" }, "geometry": { "type": "Point", "coordinates": [ 116.428187, 40.0416631 ] } },
{ "type": "Feature", "properties": { "name": "安河桥北" }, "geometry": { "type": "Point", "coordinates": [ 116.263920199999973, 40.0110618 ] } },
{ "type": "Feature", "properties": { "name": "刘家窑" }, "geometry": { "type": "Point", "coordinates": [ 116.415607400000042, 39.8560744 ] } },
{ "type": "Feature", "properties": { "name": "新街口" }, "geometry": { "type": "Point", "coordinates": [ 116.361273899999986, 39.9394291 ] } },
{ "type": "Feature", "properties": { "name": "潞城" }, "geometry": { "type": "Point", "coordinates": [ 116.741630899999976, 39.9016234 ] } },
{ "type": "Feature", "properties": { "name": "生物医药基地" }, "geometry": { "type": "Point", "coordinates": [ 116.3156802, 39.68510770000001 ] } },
{ "type": "Feature", "properties": { "name": "天安门东" }, "geometry": { "type": "Point", "coordinates": [ 116.394916899999984, 39.9063337 ] } },
{ "type": "Feature", "properties": { "name": "三元桥" }, "geometry": { "type": "Point", "coordinates": [ 116.451479899999981, 39.9597061 ] } },
{ "type": "Feature", "properties": { "name": "花园桥" }, "geometry": { "type": "Point", "coordinates": [ 116.3039811, 39.9312135 ] } },
{ "type": "Feature", "properties": { "name": "北海北" }, "geometry": { "type": "Point", "coordinates": [ 116.380044500000025, 39.9317985 ] } },
{ "type": "Feature", "properties": { "name": "高米店南" }, "geometry": { "type": "Point", "coordinates": [ 116.325694, 39.7622885 ] } },
{ "type": "Feature", "properties": { "name": "管庄" }, "geometry": { "type": "Point", "coordinates": [ 116.593167799999989, 39.908084499999987 ] } },
{ "type": "Feature", "properties": { "name": "顺义" }, "geometry": { "type": "Point", "coordinates": [ 116.651183299999985, 40.1288586 ] } },
{ "type": "Feature", "properties": { "name": "永安里" }, "geometry": { "type": "Point", "coordinates": [ 116.444171999833301, 39.90772170003418 ] } },
{ "type": "Feature", "properties": { "name": "八里桥" }, "geometry": { "type": "Point", "coordinates": [ 116.612705299999973, 39.9050518 ] } },
{ "type": "Feature", "properties": { "name": "立水桥南" }, "geometry": { "type": "Point", "coordinates": [ 116.408243700000014, 40.0405075 ] } },
{ "type": "Feature", "properties": { "name": "园博园" }, "geometry": { "type": "Point", "coordinates": [ 116.195309875390478, 39.859963425563507 ] } },
{ "type": "Feature", "properties": { "name": "五道口" }, "geometry": { "type": "Point", "coordinates": [ 116.331701699999982, 39.9914779 ] } },
{ "type": "Feature", "properties": { "name": "科怡路" }, "geometry": { "type": "Point", "coordinates": [ 116.291430199999965, 39.8308852 ] } },
{ "type": "Feature", "properties": { "name": "青年路" }, "geometry": { "type": "Point", "coordinates": [ 116.510836600000047, 39.9216819 ] } },
{ "type": "Feature", "properties": { "name": "长春桥" }, "geometry": { "type": "Point", "coordinates": [ 116.288050657127826, 39.957410850000549 ] } },
{ "type": "Feature", "properties": { "name": "火器营" }, "geometry": { "type": "Point", "coordinates": [ 116.283417100000023, 39.9643309 ] } },
{ "type": "Feature", "properties": { "name": "灵境胡同" }, "geometry": { "type": "Point", "coordinates": [ 116.3672738, 39.914779599999989 ] } },
{ "type": "Feature", "properties": { "name": "枣园" }, "geometry": { "type": "Point", "coordinates": [ 116.326033700000011, 39.75180550000001 ] } },
{ "type": "Feature", "properties": { "name": "通州北苑" }, "geometry": { "type": "Point", "coordinates": [ 116.631406899999988, 39.9027423 ] } },
{ "type": "Feature", "properties": { "name": "双桥" }, "geometry": { "type": "Point", "coordinates": [ 116.570984299999964, 39.9090728 ] } },
{ "type": "Feature", "properties": { "name": "天通苑" }, "geometry": { "type": "Point", "coordinates": [ 116.407683258440159, 40.0732195047838 ] } },
{ "type": "Feature", "properties": { "name": "传媒大学" }, "geometry": { "type": "Point", "coordinates": [ 116.5488365, 39.9080422 ] } },
{ "type": "Feature", "properties": { "name": "张自忠路" }, "geometry": { "type": "Point", "coordinates": [ 116.411295199999984, 39.9322844 ] } },
{ "type": "Feature", "properties": { "name": "小红门" }, "geometry": { "type": "Point", "coordinates": [ 116.453239899999971, 39.8267264 ] } },
{ "type": "Feature", "properties": { "name": "亦庄文化园" }, "geometry": { "type": "Point", "coordinates": [ 116.484621100000012, 39.8056285 ] } },
{ "type": "Feature", "properties": { "name": "万源街" }, "geometry": { "type": "Point", "coordinates": [ 116.499533500000027, 39.8017615 ] } },
{ "type": "Feature", "properties": { "name": "经海路" }, "geometry": { "type": "Point", "coordinates": [ 116.556435800000017, 39.7825504 ] } },
{ "type": "Feature", "properties": { "name": "俸伯" }, "geometry": { "type": "Point", "coordinates": [ 116.678978500000014, 40.1313792 ] } },
{ "type": "Feature", "properties": { "name": "望京东" }, "geometry": { "type": "Point", "coordinates": [ 116.480903500000053, 40.0020276 ] } },
{ "type": "Feature", "properties": { "name": "健德门" }, "geometry": { "type": "Point", "coordinates": [ 116.3747659, 39.9750859 ] } },
{ "type": "Feature", "properties": { "name": "白堆子" }, "geometry": { "type": "Point", "coordinates": [ 116.319681300000028, 39.922573799999988 ] } },
{ "type": "Feature", "properties": { "name": "古城" }, "geometry": { "type": "Point", "coordinates": [ 116.184447499999962, 39.9061423 ] } },
{ "type": "Feature", "properties": { "name": "成寿寺" }, "geometry": { "type": "Point", "coordinates": [ 116.441881500000036, 39.8445478 ] } },
{ "type": "Feature", "properties": { "name": "团结湖" }, "geometry": { "type": "Point", "coordinates": [ 116.4556066, 39.932201299999988 ] } },
{ "type": "Feature", "properties": { "name": "农业展览馆" }, "geometry": { "type": "Point", "coordinates": [ 116.4562886, 39.940129 ] } },
{ "type": "Feature", "properties": { "name": "亮马桥" }, "geometry": { "type": "Point", "coordinates": [ 116.456270900000021, 39.9482568 ] } },
{ "type": "Feature", "properties": { "name": "安贞门" }, "geometry": { "type": "Point", "coordinates": [ 116.3991828, 39.975834399999989 ] } },
{ "type": "Feature", "properties": { "name": "牡丹园" }, "geometry": { "type": "Point", "coordinates": [ 116.363339149661826, 39.97499585032574 ] } },
{ "type": "Feature", "properties": { "name": "西土城" }, "geometry": { "type": "Point", "coordinates": [ 116.347774499999986, 39.9748659 ] } },
{ "type": "Feature", "properties": { "name": "苏州街" }, "geometry": { "type": "Point", "coordinates": [ 116.299973600000044, 39.9743281 ] } },
{ "type": "Feature", "properties": { "name": "安德里北街" }, "geometry": { "type": "Point", "coordinates": [ 116.388548, 39.9554944 ] } },
{ "type": "Feature", "properties": { "name": "车道沟" }, "geometry": { "type": "Point", "coordinates": [ 116.287905562427227, 39.945147975000353 ] } },
{ "type": "Feature", "properties": { "name": "泥洼" }, "geometry": { "type": "Point", "coordinates": [ 116.298194600000045, 39.8573762 ] } },
{ "type": "Feature", "properties": { "name": "西钓鱼台" }, "geometry": { "type": "Point", "coordinates": [ 116.291909299999972, 39.921899400000015 ] } },
{ "type": "Feature", "properties": { "name": "莲花桥" }, "geometry": { "type": "Point", "coordinates": [ 116.304306500000038, 39.896158899999989 ] } },
{ "type": "Feature", "properties": { "name": "丰台" }, "geometry": { "type": "Point", "coordinates": [ 116.29719001746524, 39.849336273258686 ] } },
{ "type": "Feature", "properties": { "name": "北京西" }, "geometry": { "type": "Point", "coordinates": [ 116.31510560000001, 39.8935411 ] } },
{ "type": "Feature", "properties": { "name": "六道口" }, "geometry": { "type": "Point", "coordinates": [ 116.346642799999969, 39.9996659 ] } },
{ "type": "Feature", "properties": { "name": "金台夕照" }, "geometry": { "type": "Point", "coordinates": [ 116.4555255, 39.9159595 ] } },
{ "type": "Feature", "properties": { "name": "天通苑北" }, "geometry": { "type": "Point", "coordinates": [ 116.4067673, 40.0820885 ] } },
{ "type": "Feature", "properties": { "name": "阎村东" }, "geometry": { "type": "Point", "coordinates": [ 116.094550600336618, 39.727556750000169 ] } },
{ "type": "Feature", "properties": { "name": "福寿岭" }, "geometry": { "type": "Point", "coordinates": [ 116.164935700000029, 39.9385482 ] } },
{ "type": "Feature", "properties": { "name": "金安桥" }, "geometry": { "type": "Point", "coordinates": [ 116.156032144123131, 39.921416802685407 ] } },
{ "type": "Feature", "properties": { "name": "杨庄" }, "geometry": { "type": "Point", "coordinates": [ 116.179551600000025, 39.9264588 ] } },
{ "type": "Feature", "properties": { "name": "西黄村" }, "geometry": { "type": "Point", "coordinates": [ 116.200598200000044, 39.9324935 ] } },
{ "type": "Feature", "properties": { "name": "廖公庄" }, "geometry": { "type": "Point", "coordinates": [ 116.220885400000029, 39.9314101 ] } },
{ "type": "Feature", "properties": { "name": "田村" }, "geometry": { "type": "Point", "coordinates": [ 116.2468822, 39.9283896 ] } },
{ "type": "Feature", "properties": { "name": "珠市口" }, "geometry": { "type": "Point", "coordinates": [ 116.392193699999964, 39.889311699999986 ] } },
{ "type": "Feature", "properties": { "name": "永定门外" }, "geometry": { "type": "Point", "coordinates": [ 116.393101516551837, 39.865357450043682 ] } },
{ "type": "Feature", "properties": { "name": "木樨园" }, "geometry": { "type": "Point", "coordinates": [ 116.393224500000031, 39.858181 ] } },
{ "type": "Feature", "properties": { "name": "海户屯" }, "geometry": { "type": "Point", "coordinates": [ 116.394032400000015, 39.8506537 ] } },
{ "type": "Feature", "properties": { "name": "大红门南" }, "geometry": { "type": "Point", "coordinates": [ 116.3948539, 39.8355481 ] } },
{ "type": "Feature", "properties": { "name": "和义" }, "geometry": { "type": "Point", "coordinates": [ 116.39583290000003, 39.8135634 ] } },
{ "type": "Feature", "properties": { "name": "东高地" }, "geometry": { "type": "Point", "coordinates": [ 116.4030681, 39.8037787 ] } },
{ "type": "Feature", "properties": { "name": "火箭万源" }, "geometry": { "type": "Point", "coordinates": [ 116.412440900000021, 39.797982 ] } },
{ "type": "Feature", "properties": { "name": "五福堂" }, "geometry": { "type": "Point", "coordinates": [ 116.417410500000017, 39.78376750000001 ] } },
{ "type": "Feature", "properties": { "name": "中国美术馆" }, "geometry": { "type": "Point", "coordinates": [ 116.4045447, 39.9236287 ] } },
{ "type": "Feature", "properties": { "name": "天安门西" }, "geometry": { "type": "Point", "coordinates": [ 116.385162199999982, 39.905970199999985 ] } },
{ "type": "Feature", "properties": { "name": "德茂" }, "geometry": { "type": "Point", "coordinates": [ 116.4355574, 39.7712874 ] } },
{ "type": "Feature", "properties": { "name": "瀛海" }, "geometry": { "type": "Point", "coordinates": [ 116.442861656806983, 39.759283875006069 ] } },
{ "type": "Feature", "properties": { "name": "天桥" }, "geometry": { "type": "Point", "coordinates": [ 116.39250370000002, 39.880651699999987 ] } },
{ "type": "Feature", "properties": { "name": "苹果园" }, "geometry": { "type": "Point", "coordinates": [ 116.171628248884659, 39.924597150442359 ] } },
{ "type": "Feature", "properties": { "name": "大红门" }, "geometry": { "type": "Point", "coordinates": [ 116.393609056439161, 39.843482503091401 ] } },
{ "type": "Feature", "properties": { "name": "湾子" }, "geometry": { "type": "Point", "coordinates": [ 116.321359800000025, 39.888932600000011 ] } },
{ "type": "Feature", "properties": { "name": "东四十条" }, "geometry": { "type": "Point", "coordinates": [ 116.428006799999977, 39.932287 ] } },
{ "type": "Feature", "properties": { "name": "南锣鼓巷" }, "geometry": { "type": "Point", "coordinates": [ 116.397190747584901, 39.931976651061291 ] } },
{ "type": "Feature", "properties": { "name": "北宫门" }, "geometry": { "type": "Point", "coordinates": [ 116.2713671, 40.001192799999984 ] } },
{ "type": "Feature", "properties": { "name": "西苑" }, "geometry": { "type": "Point", "coordinates": [ 116.285926303616222, 39.997080150664331 ] } },
{ "type": "Feature", "properties": { "name": "金台路" }, "geometry": { "type": "Point", "coordinates": [ 116.472340699999961, 39.9215918 ] } },
{ "type": "Feature", "properties": { "name": "海淀黄庄" }, "geometry": { "type": "Point", "coordinates": [ 116.311520099999967, 39.974713199999982 ] } },
{ "type": "Feature", "properties": { "name": "南礼士路" }, "geometry": { "type": "Point", "coordinates": [ 116.346569699999989, 39.9058662 ] } },
{ "type": "Feature", "properties": { "name": "王府井" }, "geometry": { "type": "Point", "coordinates": [ 116.4052789, 39.9069496 ] } },
{ "type": "Feature", "properties": { "name": "万寿路" }, "geometry": { "type": "Point", "coordinates": [ 116.288771400000016, 39.9062159 ] } },
{ "type": "Feature", "properties": { "name": "五棵松" }, "geometry": { "type": "Point", "coordinates": [ 116.268033600000038, 39.9062214 ] } },
{ "type": "Feature", "properties": { "name": "八角游乐园" }, "geometry": { "type": "Point", "coordinates": [ 116.206486100000049, 39.9061539 ] } },
{ "type": "Feature", "properties": { "name": "八宝山" }, "geometry": { "type": "Point", "coordinates": [ 116.229679600000011, 39.9061888 ] } },
{ "type": "Feature", "properties": { "name": "玉泉路" }, "geometry": { "type": "Point", "coordinates": [ 116.2468996, 39.9061931 ] } },
{ "type": "Feature", "properties": { "name": "大钟寺" }, "geometry": { "type": "Point", "coordinates": [ 116.338422303583926, 39.965689401552808 ] } },
{ "type": "Feature", "properties": { "name": "光熙门" }, "geometry": { "type": "Point", "coordinates": [ 116.424950905459298, 39.967527102118282 ] } },
{ "type": "Feature", "properties": { "name": "柳芳" }, "geometry": { "type": "Point", "coordinates": [ 116.4266211, 39.9568025 ] } },
{ "type": "Feature", "properties": { "name": "上地" }, "geometry": { "type": "Point", "coordinates": [ 116.314084299999976, 40.0317646 ] } },
{ "type": "Feature", "properties": { "name": "龙泽" }, "geometry": { "type": "Point", "coordinates": [ 116.3132033, 40.0695732 ] } },
{ "type": "Feature", "properties": { "name": "北运河东" }, "geometry": { "type": "Point", "coordinates": [ 116.701809400000016, 39.9021187 ] } },
{ "type": "Feature", "properties": { "name": "土桥" }, "geometry": { "type": "Point", "coordinates": [ 116.6802742, 39.8707455 ] } },
{ "type": "Feature", "properties": { "name": "积水潭" }, "geometry": { "type": "Point", "coordinates": [ 116.366442645110325, 39.946781101635693 ] } },
{ "type": "Feature", "properties": { "name": "前门" }, "geometry": { "type": "Point", "coordinates": [ 116.3929416, 39.8982814 ] } },
{ "type": "Feature", "properties": { "name": "阜成门" }, "geometry": { "type": "Point", "coordinates": [ 116.350066599999977, 39.922313 ] } },
{ "type": "Feature", "properties": { "name": "长椿街" }, "geometry": { "type": "Point", "coordinates": [ 116.357214699999972, 39.8980394 ] } },
{ "type": "Feature", "properties": { "name": "安定门" }, "geometry": { "type": "Point", "coordinates": [ 116.402067600000024, 39.9476674 ] } },
{ "type": "Feature", "properties": { "name": "大兴机场" }, "geometry": { "type": "Point", "coordinates": [ 116.410675800000064, 39.5124863 ] } },
{ "type": "Feature", "properties": { "name": "大兴新城" }, "geometry": { "type": "Point", "coordinates": [ 116.359482400000047, 39.7340741 ] } },
{ "type": "Feature", "properties": { "name": "黄厂" }, "geometry": { "type": "Point", "coordinates": [ 116.547528500000013, 39.8479616 ] } },
{ "type": "Feature", "properties": { "name": "郎辛庄" }, "geometry": { "type": "Point", "coordinates": [ 116.564104600000036, 39.8555351 ] } },
{ "type": "Feature", "properties": { "name": "黑庄户" }, "geometry": { "type": "Point", "coordinates": [ 116.592782700000015, 39.8577135 ] } },
{ "type": "Feature", "properties": { "name": "万盛西" }, "geometry": { "type": "Point", "coordinates": [ 116.6267073, 39.8624408 ] } },
{ "type": "Feature", "properties": { "name": "花庄" }, "geometry": { "type": "Point", "coordinates": [ 116.689014200000031, 39.8553801 ] } },
{ "type": "Feature", "properties": { "name": "环球度假区" }, "geometry": { "type": "Point", "coordinates": [ 116.673529, 39.8481659 ] } },
{ "type": "Feature", "properties": { "name": "首经贸" }, "geometry": { "type": "Point", "coordinates": [ 116.313968449841582, 39.843072900045378 ] } },
{ "type": "Feature", "properties": { "name": "清河" }, "geometry": { "type": "Point", "coordinates": [ 116.308682599999983, 40.0397784 ] } },
{ "type": "Feature", "properties": { "name": "高楼金" }, "geometry": { "type": "Point", "coordinates": [ 116.679395204234197, 39.861728150057736 ] } },
{ "type": "Feature", "properties": { "name": "肖村" }, "geometry": { "type": "Point", "coordinates": [ 116.442721099999972, 39.8328015 ] } },
{ "type": "Feature", "properties": { "name": "白盆窑" }, "geometry": { "type": "Point", "coordinates": [ 116.306861882409038, 39.818259300029212 ] } },
{ "type": "Feature", "properties": { "name": "花乡东桥" }, "geometry": { "type": "Point", "coordinates": [ 116.313901376901072, 39.827721025008934 ] } },
{ "type": "Feature", "properties": { "name": "丰台南路" }, "geometry": { "type": "Point", "coordinates": [ 116.290667799999966, 39.8395949 ] } },
{ "type": "Feature", "properties": { "name": "饶乐府" }, "geometry": { "type": "Point", "coordinates": [ 116.000176542275639, 39.700293975070387 ] } },
{ "type": "Feature", "properties": { "name": "丰台科技园" }, "geometry": { "type": "Point", "coordinates": [ 116.291248799999977, 39.8239138 ] } },
{ "type": "Feature", "properties": { "name": "丰台东大街" }, "geometry": { "type": "Point", "coordinates": [ 116.287786200000014, 39.8541721 ] } },
{ "type": "Feature", "properties": { "name": "六里桥东" }, "geometry": { "type": "Point", "coordinates": [ 116.308808, 39.8857143 ] } },
{ "type": "Feature", "properties": { "name": "西红门" }, "geometry": { "type": "Point", "coordinates": [ 116.322677, 39.78839390000001 ] } },
{ "type": "Feature", "properties": { "name": "高米店北" }, "geometry": { "type": "Point", "coordinates": [ 116.324480500000035, 39.773030099999986 ] } },
{ "type": "Feature", "properties": { "name": "清源路" }, "geometry": { "type": "Point", "coordinates": [ 116.32631619999998, 39.741756100000018 ] } },
{ "type": "Feature", "properties": { "name": "黄村西大街" }, "geometry": { "type": "Point", "coordinates": [ 116.326518599999943, 39.730422 ] } },
{ "type": "Feature", "properties": { "name": "黄村火车" }, "geometry": { "type": "Point", "coordinates": [ 116.326654099999942, 39.7215049 ] } },
{ "type": "Feature", "properties": { "name": "义和庄" }, "geometry": { "type": "Point", "coordinates": [ 116.3130186, 39.7111046 ] } },
{ "type": "Feature", "properties": { "name": "圆明园" }, "geometry": { "type": "Point", "coordinates": [ 116.303673900000049, 39.9982949 ] } },
{ "type": "Feature", "properties": { "name": "北京大学东门" }, "geometry": { "type": "Point", "coordinates": [ 116.309726400000045, 39.990781299999988 ] } },
{ "type": "Feature", "properties": { "name": "中关村" }, "geometry": { "type": "Point", "coordinates": [ 116.3103787, 39.982657399999987 ] } },
{ "type": "Feature", "properties": { "name": "人民大学" }, "geometry": { "type": "Point", "coordinates": [ 116.315728600000028, 39.965744 ] } },
{ "type": "Feature", "properties": { "name": "魏公村" }, "geometry": { "type": "Point", "coordinates": [ 116.317181500000032, 39.9563044 ] } },
{ "type": "Feature", "properties": { "name": "西四" }, "geometry": { "type": "Point", "coordinates": [ 116.366814499999975, 39.9225455 ] } },
{ "type": "Feature", "properties": { "name": "陶然亭" }, "geometry": { "type": "Point", "coordinates": [ 116.368202899999986, 39.8774369 ] } },
{ "type": "Feature", "properties": { "name": "马家堡" }, "geometry": { "type": "Point", "coordinates": [ 116.365207, 39.8516352 ] } },
{ "type": "Feature", "properties": { "name": "和平里北街" }, "geometry": { "type": "Point", "coordinates": [ 116.412235200000012, 39.9573887 ] } },
{ "type": "Feature", "properties": { "name": "天坛东门" }, "geometry": { "type": "Point", "coordinates": [ 116.4145694, 39.8822567 ] } },
{ "type": "Feature", "properties": { "name": "黄渠" }, "geometry": { "type": "Point", "coordinates": [ 116.57307120000003, 39.9228365 ] } },
{ "type": "Feature", "properties": { "name": "车公庄西" }, "geometry": { "type": "Point", "coordinates": [ 116.337990300000044, 39.931061 ] } },
{ "type": "Feature", "properties": { "name": "纪家庙" }, "geometry": { "type": "Point", "coordinates": [ 116.327357125000304, 39.84316235 ] } },
{ "type": "Feature", "properties": { "name": "东大桥" }, "geometry": { "type": "Point", "coordinates": [ 116.44488685075433, 39.921561251961599 ] } },
{ "type": "Feature", "properties": { "name": "知春里" }, "geometry": { "type": "Point", "coordinates": [ 116.322928400000038, 39.9749496 ] } },
{ "type": "Feature", "properties": { "name": "石榴庄" }, "geometry": { "type": "Point", "coordinates": [ 116.407412599999972, 39.844492699999989 ] } },
{ "type": "Feature", "properties": { "name": "旧宫" }, "geometry": { "type": "Point", "coordinates": [ 116.4547308, 39.8056107 ] } },
{ "type": "Feature", "properties": { "name": "亦庄桥" }, "geometry": { "type": "Point", "coordinates": [ 116.474267300000022, 39.801744 ] } },
{ "type": "Feature", "properties": { "name": "荣京东街" }, "geometry": { "type": "Point", "coordinates": [ 116.507463, 39.7920207 ] } },
{ "type": "Feature", "properties": { "name": "荣昌东街" }, "geometry": { "type": "Point", "coordinates": [ 116.515857, 39.781695599999978 ] } },
{ "type": "Feature", "properties": { "name": "亦庄火车" }, "geometry": { "type": "Point", "coordinates": [ 116.596081899999973, 39.811566899999988 ] } },
{ "type": "Feature", "properties": { "name": "次渠" }, "geometry": { "type": "Point", "coordinates": [ 116.585763500026317, 39.802539200087388 ] } },
{ "type": "Feature", "properties": { "name": "大葆台" }, "geometry": { "type": "Point", "coordinates": [ 116.2854666, 39.8064524 ] } },
{ "type": "Feature", "properties": { "name": "长阳" }, "geometry": { "type": "Point", "coordinates": [ 116.206504399999986, 39.7625141 ] } },
{ "type": "Feature", "properties": { "name": "篱笆房" }, "geometry": { "type": "Point", "coordinates": [ 116.183379700000017, 39.759377 ] } },
{ "type": "Feature", "properties": { "name": "广阳城" }, "geometry": { "type": "Point", "coordinates": [ 116.178841399999968, 39.7465971 ] } },
{ "type": "Feature", "properties": { "name": "良乡大学城北" }, "geometry": { "type": "Point", "coordinates": [ 116.177335400000018, 39.728465 ] } },
{ "type": "Feature", "properties": { "name": "良乡大学城" }, "geometry": { "type": "Point", "coordinates": [ 116.170297299999973, 39.721901799999983 ] } },
{ "type": "Feature", "properties": { "name": "良乡大学城西" }, "geometry": { "type": "Point", "coordinates": [ 116.150015700000026, 39.72186880000001 ] } },
{ "type": "Feature", "properties": { "name": "苏庄" }, "geometry": { "type": "Point", "coordinates": [ 116.1189698, 39.7218523 ] } },
{ "type": "Feature", "properties": { "name": "国展" }, "geometry": { "type": "Point", "coordinates": [ 116.5493705, 40.068903 ] } },
{ "type": "Feature", "properties": { "name": "花梨坎" }, "geometry": { "type": "Point", "coordinates": [ 116.551840199999944, 40.0833437 ] } },
{ "type": "Feature", "properties": { "name": "后沙峪" }, "geometry": { "type": "Point", "coordinates": [ 116.558449099999976, 40.1130148 ] } },
{ "type": "Feature", "properties": { "name": "南法信" }, "geometry": { "type": "Point", "coordinates": [ 116.603571300000041, 40.1274067 ] } },
{ "type": "Feature", "properties": { "name": "通州北关" }, "geometry": { "type": "Point", "coordinates": [ 116.656089282106223, 39.917161651368595 ] } },
{ "type": "Feature", "properties": { "name": "物资学院路" }, "geometry": { "type": "Point", "coordinates": [ 116.6334973, 39.9259297 ] } },
{ "type": "Feature", "properties": { "name": "草房" }, "geometry": { "type": "Point", "coordinates": [ 116.610304400000047, 39.9235091 ] } },
{ "type": "Feature", "properties": { "name": "临河里" }, "geometry": { "type": "Point", "coordinates": [ 116.672859399999936, 39.874294400000011 ] } },
{ "type": "Feature", "properties": { "name": "九棵树" }, "geometry": { "type": "Point", "coordinates": [ 116.651623, 39.889165 ] } },
{ "type": "Feature", "properties": { "name": "果园" }, "geometry": { "type": "Point", "coordinates": [ 116.640754699999988, 39.8922857 ] } },
{ "type": "Feature", "properties": { "name": "生命科学园" }, "geometry": { "type": "Point", "coordinates": [ 116.288183, 40.093573 ] } },
{ "type": "Feature", "properties": { "name": "奥体中心" }, "geometry": { "type": "Point", "coordinates": [ 116.387583, 39.9841327 ] } },
{ "type": "Feature", "properties": { "name": "东管头南" }, "geometry": { "type": "Point", "coordinates": [ 116.31670720533053, 39.853702100073825 ] } },
{ "type": "Feature", "properties": { "name": "洪泰庄" }, "geometry": { "type": "Point", "coordinates": [ 116.242565799999966, 39.8473 ] } },
{ "type": "Feature", "properties": { "name": "高碑店" }, "geometry": { "type": "Point", "coordinates": [ 116.525547599999967, 39.9082528 ] } },
{ "type": "Feature", "properties": { "name": "草桥" }, "geometry": { "type": "Point", "coordinates": [ 116.343564113559864, 39.845611507636853 ] } },
{ "type": "Feature", "properties": { "name": "大石河东" }, "geometry": { "type": "Point", "coordinates": [ 116.033998100000019, 39.7085836 ] } },
{ "type": "Feature", "properties": { "name": "星城" }, "geometry": { "type": "Point", "coordinates": [ 116.0551386, 39.7122214 ] } },
{ "type": "Feature", "properties": { "name": "紫草坞" }, "geometry": { "type": "Point", "coordinates": [ 116.0804553, 39.723022 ] } },
{ "type": "Feature", "properties": { "name": "西铁营" }, "geometry": { "type": "Point", "coordinates": [ 116.3497096, 39.859977 ] } },
{ "type": "Feature", "properties": { "name": "金鱼胡同" }, "geometry": { "type": "Point", "coordinates": [ 116.404924599999973, 39.9147047 ] } },
{ "type": "Feature", "properties": { "name": "北辛安" }, "geometry": { "type": "Point", "coordinates": [ 116.158587299999979, 39.9138827 ] } },
{ "type": "Feature", "properties": { "name": "新首钢" }, "geometry": { "type": "Point", "coordinates": [ 116.158606099999986, 39.9076653 ] } },
{ "type": "Feature", "properties": { "name": "新发地" }, "geometry": { "type": "Point", "coordinates": [ 116.340252600000028, 39.822556699999986 ] } },
{ "type": "Feature", "properties": { "name": "首都机场3号航站楼" }, "geometry": { "type": "Point", "coordinates": [ 116.609773099999984, 40.0515344 ] } },
{ "type": "Feature", "properties": { "name": "十八里店" }, "geometry": { "type": "Point", "coordinates": [ 116.489831400000014, 39.8430584 ] } },
{ "type": "Feature", "properties": { "name": "北神树" }, "geometry": { "type": "Point", "coordinates": [ 116.547173, 39.817534699999989 ] } },
{ "type": "Feature", "properties": { "name": "嘉会湖" }, "geometry": { "type": "Point", "coordinates": [ 116.605255599999978, 39.7918725 ] } },
{ "type": "Feature", "properties": { "name": "二里沟" }, "geometry": { "type": "Point", "coordinates": [ 116.327577599999969, 39.9310721 ] } },
{ "type": "Feature", "properties": { "name": "模式口" }, "geometry": { "type": "Point", "coordinates": [ 116.149817399999961, 39.9323418 ] } },
{ "type": "Feature", "properties": { "name": "周家庄" }, "geometry": { "type": "Point", "coordinates": [ 116.47060679999997, 39.855252 ] } },
{ "type": "Feature", "properties": { "name": "次渠北" }, "geometry": { "type": "Point", "coordinates": [ 116.5706243, 39.8085973 ] } },
{ "type": "Feature", "properties": { "name": "北太平庄" }, "geometry": { "type": "Point", "coordinates": [ 116.364124, 39.9667708 ] } },
{ "type": "Feature", "properties": { "name": "五三" }, "geometry": { "type": "Point", "coordinates": [ 116.1485756, 39.9470576 ] } },
{ "type": "Feature", "properties": { "name": "新宫" }, "geometry": { "type": "Point", "coordinates": [ 116.359749, 39.8110444 ] } },
{ "type": "Feature", "properties": { "name": "太平桥" }, "geometry": { "type": "Point", "coordinates": [ 116.357151600000066, 39.9087765 ] } },
{ "type": "Feature", "properties": { "name": "看丹" }, "geometry": { "type": "Point", "coordinates": [ 116.266647700000036, 39.8338003 ] } },
{ "type": "Feature", "properties": { "name": "学院桥" }, "geometry": { "type": "Point", "coordinates": [ 116.3472515, 39.986801300000018 ] } },
{ "type": "Feature", "properties": { "name": "学知园" }, "geometry": { "type": "Point", "coordinates": [ 116.345752800000014, 40.0136302 ] } },
{ "type": "Feature", "properties": { "name": "清河小营桥" }, "geometry": { "type": "Point", "coordinates": [ 116.336804972122295, 40.033860725001837 ] } },
{ "type": "Feature", "properties": { "name": "东坝北" }, "geometry": { "type": "Point", "coordinates": [ 116.551970200000028, 39.9746043 ] } },
{ "type": "Feature", "properties": { "name": "未来科学城北" }, "geometry": { "type": "Point", "coordinates": [ 116.463171499999987, 40.1295159 ] } },
{ "type": "Feature", "properties": { "name": "未来科学城" }, "geometry": { "type": "Point", "coordinates": [ 116.460515900000047, 40.1141592 ] } },
{ "type": "Feature", "properties": { "name": "天通苑东" }, "geometry": { "type": "Point", "coordinates": [ 116.436899450286333, 40.06707595361619 ] } },
{ "type": "Feature", "properties": { "name": "清河营" }, "geometry": { "type": "Point", "coordinates": [ 116.436013899999978, 40.0496531 ] } },
{ "type": "Feature", "properties": { "name": "红军营" }, "geometry": { "type": "Point", "coordinates": [ 116.435536199999987, 40.033087699999989 ] } },
{ "type": "Feature", "properties": { "name": "工人体育场" }, "geometry": { "type": "Point", "coordinates": [ 116.444203800000025, 39.9323548 ] } },
{ "type": "Feature", "properties": { "name": "西坝河" }, "geometry": { "type": "Point", "coordinates": [ 116.435434800146339, 39.964427251658691 ] } },
{ "type": "Feature", "properties": { "name": "左家庄" }, "geometry": { "type": "Point", "coordinates": [ 116.436548200000047, 39.9485486 ] } },
{ "type": "Feature", "properties": { "name": "太阳宫" }, "geometry": { "type": "Point", "coordinates": [ 116.4411862, 39.9712918 ] } },
{ "type": "Feature", "properties": { "name": "立水桥" }, "geometry": { "type": "Point", "coordinates": [ 116.405701300000032, 40.0515049 ] } },
{ "type": "Feature", "properties": { "name": "四季青桥" }, "geometry": { "type": "Point", "coordinates": [ 116.268282700000029, 39.942511899999985 ] } },
{ "type": "Feature", "properties": { "name": "东坝南" }, "geometry": { "type": "Point", "coordinates": [ 116.5411241, 39.9507876 ] } },
{ "type": "Feature", "properties": { "name": "东坝" }, "geometry": { "type": "Point", "coordinates": [ 116.541359, 39.964645 ] } },
{ "type": "Feature", "properties": { "name": "驼房营" }, "geometry": { "type": "Point", "coordinates": [ 116.499484799999976, 39.9792261 ] } },
{ "type": "Feature", "properties": { "name": "高家园" }, "geometry": { "type": "Point", "coordinates": [ 116.4850346, 39.97913040000001 ] } },
{ "type": "Feature", "properties": { "name": "将台西" }, "geometry": { "type": "Point", "coordinates": [ 116.473956400000063, 39.9713939 ] } },
{ "type": "Feature", "properties": { "name": "东坝西" }, "geometry": { "type": "Point", "coordinates": [ 116.528356200000061, 39.973336100000012 ] } },
{ "type": "Feature", "properties": { "name": "蓟门桥" }, "geometry": { "type": "Point", "coordinates": [ 116.348827399999948, 39.966312899999984 ] } },
{ "type": "Feature", "properties": { "name": "马甸桥" }, "geometry": { "type": "Point", "coordinates": [ 116.375834200000028, 39.9668285 ] } },
{ "type": "Feature", "properties": { "name": "安贞桥" }, "geometry": { "type": "Point", "coordinates": [ 116.40099739999998, 39.9675012 ] } },
{ "type": "Feature", "properties": { "name": "蓝靛厂" }, "geometry": { "type": "Point", "coordinates": [ 116.2767052, 39.9558597 ] } },
{ "type": "Feature", "properties": { "name": "石佛营" }, "geometry": { "type": "Point", "coordinates": [ 116.493443500000041, 39.9341652 ] } },
{ "type": "Feature", "properties": { "name": "朝阳" }, "geometry": { "type": "Point", "coordinates": [ 116.499883600000061, 39.9429982 ] } },
{ "type": "Feature", "properties": { "name": "姚家园" }, "geometry": { "type": "Point", "coordinates": [ 116.521292299999971, 39.9465956 ] } },
{ "type": "Feature", "properties": { "name": "朱房北" }, "geometry": { "type": "Point", "coordinates": [ 116.325965789343996, 40.034665750014128 ] } },
{ "type": "Feature", "properties": { "name": "政务中心东" }, "geometry": { "type": "Point", "coordinates": [ 116.732761799999977, 39.9097035 ] } },
{ "type": "Feature", "properties": { "name": "石门" }, "geometry": { "type": "Point", "coordinates": [ 116.635218, 40.1286418 ] } },
{ "type": "Feature", "properties": { "name": "龙泽西" }, "geometry": { "type": "Point", "coordinates": [ 116.304043300000046, 40.071479399999987 ] } },
{ "type": "Feature", "properties": { "name": "潞阳" }, "geometry": { "type": "Point", "coordinates": [ 116.7510869, 39.8888289 ] } },
{ "type": "Feature", "properties": { "name": "上地软件园" }, "geometry": { "type": "Point", "coordinates": [ 116.280566400000012, 40.043537 ] } },
{ "type": "Feature", "properties": { "name": "东北旺" }, "geometry": { "type": "Point", "coordinates": [ 116.288721899999985, 40.051835 ] } },
{ "type": "Feature", "properties": { "name": "回龙观西大街" }, "geometry": { "type": "Point", "coordinates": [ 116.324592400000029, 40.07727809999998 ] } },
{ "type": "Feature", "properties": { "name": "文华路" }, "geometry": { "type": "Point", "coordinates": [ 116.335661499999972, 40.0788401 ] } },
{ "type": "Feature", "properties": { "name": "霍营东" }, "geometry": { "type": "Point", "coordinates": [ 116.369802799999974, 40.0805687 ] } },
{ "type": "Feature", "properties": { "name": "太平庄" }, "geometry": { "type": "Point", "coordinates": [ 116.420277300000024, 40.0727436 ] } },
{ "type": "Feature", "properties": { "name": "潘家园西" }, "geometry": { "type": "Point", "coordinates": [ 116.444696600000071, 39.873824 ] } },
{ "type": "Feature", "properties": { "name": "稻田" }, "geometry": { "type": "Point", "coordinates": [ 116.212779121927696, 39.79359005 ] } },
{ "type": "Feature", "properties": { "name": "梨园" }, "geometry": { "type": "Point", "coordinates": [ 116.662732361181867, 39.8825292 ] } },
{ "type": "Feature", "properties": { "name": "天通苑南" }, "geometry": { "type": "Point", "coordinates": [ 116.406516700000012, 40.0651178 ] } },
{ "type": "Feature", "properties": { "name": "育新" }, "geometry": { "type": "Point", "coordinates": [ 116.341069125238562, 40.05829 ] } },
{ "type": "Feature", "properties": { "name": "朱辛庄" }, "geometry": { "type": "Point", "coordinates": [ 116.307547099999965, 40.102997250000016 ] } },
{ "type": "Feature", "properties": { "name": "海淀五路居" }, "geometry": { "type": "Point", "coordinates": [ 116.271148949999983, 39.9313956 ] } },
{ "type": "Feature", "properties": { "name": "育知路" }, "geometry": { "type": "Point", "coordinates": [ 116.320725488622614, 40.08658765 ] } },
{ "type": "Feature", "properties": { "name": "张郭庄" }, "geometry": { "type": "Point", "coordinates": [ 116.181200487960254, 39.85686475 ] } },
{ "type": "Feature", "properties": { "name": "望京南" }, "geometry": { "type": "Point", "coordinates": [ 116.475659522657139, 39.9831863 ] } },
{ "type": "Feature", "properties": { "name": "通运门" }, "geometry": { "type": "Point", "coordinates": [ 116.666672207846645, 39.91018395 ] } },
{ "type": "Feature", "properties": { "name": "常营" }, "geometry": { "type": "Point", "coordinates": [ 116.59389465000001, 39.92432995 ] } },
{ "type": "Feature", "properties": { "name": "群芳" }, "geometry": { "type": "Point", "coordinates": [ 116.664714900851465, 39.86231585 ] } },
{ "type": "Feature", "properties": { "name": "万盛东" }, "geometry": { "type": "Point", "coordinates": [ 116.65090427407408, 39.86232795 ] } },
{ "type": "Feature", "properties": { "name": "稻香湖路" }, "geometry": { "type": "Point", "coordinates": [ 116.182539437823664, 40.06750415 ] } },
{ "type": "Feature", "properties": { "name": "永丰" }, "geometry": { "type": "Point", "coordinates": [ 116.232442899999967, 40.07066925 ] } },
{ "type": "Feature", "properties": { "name": "牛街" }, "geometry": { "type": "Point", "coordinates": [ 116.357314761212734, 39.8893238 ] } },
{ "type": "Feature", "properties": { "name": "丰台站" }, "geometry": { "type": "Point", "coordinates": [ 116.29919806702857, 39.849031 ] } },
{ "type": "Feature", "properties": { "name": "火器营A2口" }, "geometry": { "type": "Point", "coordinates": [ 116.281702426832354, 39.96562155 ] } }
]
}
